#dP2021  2 18 12  0  0.00000000      96 __u+U ITR00 EXT  IAC
## 2145 388800.00000000   900.00000000 59263 0.5000000000000
+  117   C06C07C08C09C10C11C12C13C14C16C19C20C21C22C23C24C25
+        C26C27C28C29C30C32C33C34C35C36C37C38C39C40C41C42C43
+        C44C45C46E01E02E03E04E05E07E08E09E11E12E13E14E15E18
+        E19E21E24E25E26E27E30E31E33E36G01G02G03G04G05G06G07
+        G08G09G10G11G12G13G14G15G16G17G18G19G20G21G22G23G24
+        G25G26G27G28G29G30G31G32J01J02J03R01R02R03R04R05R07
+        R08R09R11R12R13R14R15R16R17R18R19R20R21R22R24  0  0
++        11 10 11  9  9  8  9 10  9  9  7  9  9  8  9 10  9
++         9  9  8  8 10  9  9  9  8 10  9 11  9 11  8  9  9
++        10  9  9  8  8  7  8  8  8  8  7  8  8  8  8  8  8
++         7  7  8  8  8  9  7  7  9  8  9  9  7  7  9  7  8
++         8  7  8  9  8  7  7  9  9  9  8  8  7  9  7  7  9
++         8  7  8  7  8  7  8 12 10 10  9  9 10 10  8  7  7
++         9  9  7  8  8  8  7  9  8  9  9  9  8  7  8  0  0
%c M  cc GPS ccc cccc cccc cccc cccc ccccc ccccc ccccc ccccc
%c cc cc ccc ccc cccc cccc cccc cccc ccccc ccccc ccccc ccccc
%f  0.0000000  0.000000000  0.00000000000  0.000000000000000
%f  0.0000000  0.000000000  0.00000000000  0.000000000000000
%i    0    0    0    0      0      0      0      0         0
%i    0    0    0    0      0      0      0      0         0
/* IAC                                ULTRA-RAPID PREDICTION
/* S/V CLOCKS ARE ALIGNED TO GNSS TIME                      
/* G:C1WC2W R:C1PC2P E:C1XC5X C:C2IC6I J:C1CC2S             
/* PCV:IGS14_2134 OL/AL:FES2004  NONE     YN ORB:CoN CLK:CoN
*  2021 02 19 11 15  0.00000000
PC06  -7324.467203  25088.882452 -32540.370192    105.494959
PC07 -22996.265365  28205.726999  21106.260332   -341.701804
PC08 -14156.906211  38259.931256  11494.030341   -911.519346
PC09   6473.603756  32331.193149 -25748.614311    722.584189
PC10  -9223.513304  29302.052584  28915.157985    -83.981896
PC11   9014.669977  23638.039114  11885.167850   -914.208531
PC12  -6797.671782  15051.961094  22536.054267    808.975058
PC13  -5048.182873  41869.709389  -3102.373725    148.041876
PC14   1877.433058  15833.693596 -22874.258981    172.633528
PC16  -4494.165435  26360.973153 -32472.341476   -702.078251
PC19 -12709.131793 -12701.340736  21374.768700    733.534815
PC20   7705.826450 -16366.522696  21272.592623   -917.398214
PC21 -24491.104266  10357.005901  -8416.915000   -845.809365
PC22 -26339.505259  -1599.416129   9044.292869   -885.519733
PC23  16141.308774   2907.128485  22574.413102   -875.937880
PC24  -8440.204669  26551.963758   1842.563982   -763.885636
PC25   6452.196674  20465.201444  17844.837338   -938.939442
PC26 -16542.403363  17696.707934 -13896.764588    946.318056
PC27  14623.689159  -6912.589094 -22752.137888    485.894554
PC28  21475.912774  11336.795107 -13744.261972   -107.667561
PC29 -16561.148745 -22227.251844  -3264.669303    354.518636
PC30  -1103.993658 -20765.449982 -18622.428187    446.148179
PC32  24418.638223 -10568.209677   8441.832878   -897.209546
PC33  12732.557188  12668.706369 -21353.489936   -958.542114
PC34   1614.515036  21068.560839  18209.179819   -736.494035
PC35 -21917.489038 -10840.967812  13482.547759   -410.740072
PC36  -5739.358368 -20828.214118 -17642.198346   -753.353473
PC37  17133.055844 -16536.580199  14544.319838   -866.572126
PC38 -12867.559761  39263.618989   8731.394928    131.023854
PC39  -2382.128963  26771.533369 -32451.058438     28.615035
PC40 -16738.057650  24562.797566  29860.463861    133.129711
PC41  26269.932621   1662.879007  -9204.687384   -929.859119
PC42  -8433.617932  16351.296344 -20934.872017   -879.743409
PC43  16142.562609  22443.684083   3690.822168   -604.846054
PC44 -14658.137408   7229.734617  22619.232659     46.613446
PC45 -16071.714935  -2720.714048 -22654.534133    366.299126
PC46   7790.178397 -26637.143787  -2703.838788    398.253064
PE01 -23901.202305  16083.493509  -6830.250794  -1049.385310
PE02  23862.585346 -16151.903003   6717.986280    199.532987
PE03  23676.998209  -5407.013086  16926.638874   -400.355747
PE04  -5435.173206  16213.383644 -24157.241150   -713.007788
PE05  28281.293294   8730.612340   -345.166585   -303.298618
PE07 -16344.066326 -17643.277947  17254.925391   -502.854318
PE08   4974.397841 -16206.968570  24264.244323   6044.689814
PE09  16630.093093  17422.959665 -17212.351727   5760.292469
PE11  10606.898899  26988.626418  -5887.897059   6301.088273
PE12  -2502.978202  26320.180343  13296.021600   5348.453690
PE13 -10472.205504 -27139.434703   5512.390454    412.337980
PE14  27907.533369   4674.241865 -13302.097446  -1335.272937
PE15   2315.940931 -26358.717410 -13262.111829    828.544237
PE18 -22318.404940 -11643.788434   3013.915528  -1459.738815
PE19 -25027.517036   3710.444062 -15364.426849    207.665946
PE21 -20657.200150   -151.915902 -21208.581008   -649.318301
PE24   4631.318591  17387.684199  23493.324947   -751.854272
PE25  20550.369964    335.605363  21298.914114   -526.762474
PE26 -17222.409446 -11248.512259  21296.247519   2130.428374
PE27  -5355.075113 -16876.965355 -23718.397839     26.632713
PE30  13728.405684 -23513.580327 -11597.552917   3168.773732
PE31 -13010.655285  23591.824173  12274.545791   -478.433406
PE33 -13741.853721  10047.018174  24225.890129   -465.828836
PE36  17071.659966  11966.827612 -20997.534072    438.561605
PG01 -13343.043157  10234.047643  20223.206939    758.037494
PG02  13345.086524  14575.623065 -17073.651059   -578.436168
PG03 -23069.972603  12976.599875   1251.996392    -87.133335
PG04 -19685.501728   2677.261155 -17648.143248   -181.271682
PG05  20596.522672    868.290828 -17001.220908    -34.115853
PG06   6040.638252  24452.828918  -8277.571397     -2.337988
PG07  -7133.283305  22940.915365 -10429.079728     64.074805
PG08 -23545.325143  -2873.153360  12254.013808    -10.869506
PG09  -9313.001619  12429.501935 -21606.746450   -324.308477
PG10   1987.320226 -17356.061027  20036.230116    -64.782694
PG11 -16267.994581   2908.271132  20299.157474    -20.331842
PG12  24441.376693  -8725.691465   5001.093173     -3.248952
PG13  22843.104022  12860.392873   4532.092014     98.971216
PG14  -4467.059038  17797.788103  19189.044085     97.794233
PG15  23809.144365    241.424300  11770.308341   -168.366609
PG16 -19320.444157  -4266.382396 -18178.400790   -282.418199
PG17   7776.819961  18728.220557  17584.317532    396.814956
PG18   5533.244193 -24682.624547  -8007.993363    347.956849
PG19  15015.529047  19060.510828  10625.317479    -36.471492
PG20  12253.837554 -20602.950648  11084.735060    524.624778
PG21 -15603.407080   1387.113269  22183.993095     96.867442
PG22 -23189.902806   7720.945857  10376.408141   -676.229565
PG23  12852.868039 -19122.759389  13155.523323    118.409054
PG24  15133.659830  -4811.884116  21011.989613      2.156752
PG25  18156.041780 -17559.365667  -7995.703089     83.582656
PG26 -10795.677443 -11503.926075 -21436.861558     47.119142
PG27 -23598.673148 -12610.827631    408.390688    -79.303987
PG28  -1854.768033  16818.078094  21081.243396    613.373683
PG29   9964.207945 -11002.318876 -22068.153264   -297.788616
PG30    471.059136  26421.444032    843.112632   -387.058935
PG31  -7598.448116 -22788.488060 -10880.569650   -101.003739
PG32 -10116.112832 -18514.535552  16332.687637     19.246310
PJ01 -32590.637738  16880.051440 -16068.709732   -342.075906
PJ02 -28351.752141  30897.155254    105.025523      2.114499
PJ03 -25524.407520  22906.453169  29617.758158     -0.870832
PR01  16261.897255   8378.277970 -17781.793975     75.230382
PR02  25434.688073   -321.190274   1455.994338    467.638720
PR03  17090.977332  -8013.610492  17170.332509     31.046849
PR04   -732.019731 -10837.284386  23106.352809     74.608978
PR05 -18184.263887  -7784.731963  16130.591656     66.758670
PR07 -16676.819241   8146.322483 -17484.256327    -42.476882
PR08    750.393162  10926.190504 -22982.470792    -57.472651
PR09 -15053.892004   7196.477774 -19256.269592    -20.982517
PR11  -5838.914792  21757.835313  11965.076395      3.050903
PR12   6413.100194  10258.972308  22480.119542    206.269667
PR13  14721.582766  -6912.592984  19627.306155    -50.927304
PR14  14584.790599 -20356.253098   4885.176756     61.156632
PR15   5880.986243 -21579.914238 -12243.324445    105.315707
PR16  -7451.279577  -9221.742537 -22598.616892    -11.517070
PR17   5507.608288 -10952.156304 -22349.965332    401.394921
PR18  -5805.074296 -21702.707630 -12118.076410     67.173667
PR19 -13168.482765 -21511.888575   3822.127984   -132.644172
PR20 -13879.179682  -7256.413521  20163.231810   -433.703979
PR21  -4715.195148  11949.974032  22046.403182   -188.800661
PR22   6343.304277  21975.791004  11175.777096    -98.668871
PR24  14127.095017   6163.014839 -20305.315971     32.132627
EOF
